{"type":"Feature","properties":{"name":"España"},"geometry":{"type":"MultiPolygon","coordinates":[[[[-6.8638,40.2703],[-6.8638,40.2962],[-6.8189,40.3252],[-6.7896,40.3349],[-6.7941,40.3559],[-6.7806,40.364],[-6.8211,40.3963],[-6.8391,40.4141],[-6.8503,40.4513],[-6.8121,40.5046],[-6.7964,40.511],[-6.8054,40.5401],[-6.8009,40.5498],[-6.8459,40.566],[-6.8391,40.5934],[-6.8211,40.6112],[-6.7941,40.6613],[-6.8144,40.7081],[-6.8099,40.7162],[-6.8301,40.7421],[-6.8256,40.7857],[-6.8166,40.797],[-6.8234,40.8455],[-6.8009,40.8487],[-6.8099,40.8826],[-6.8391,40.8907],[-6.8481,40.902],[-6.8481,40.923],[-6.8593,40.9505],[-6.8751,40.9602],[-6.9088,40.999],[-6.9223,41.0022],[-6.9313,41.0297],[-6.9201,41.0377],[-6.8683,41.0264],[-6.8346,41.028],[-6.8099,41.0361],[-6.7536,41.104],[-6.7716,41.1234],[-6.7671,41.1347],[-6.7087,41.1734],[-6.6929,41.1928],[-6.6929,41.2074],[-6.6479,41.2478],[-6.6299,41.2429],[-6.5872,41.2526],[-6.585,41.2413],[-6.5512,41.2462],[-6.5467,41.2575],[-6.5175,41.2752],[-6.4995,41.2655],[-6.4792,41.2768],[-6.4905,41.2849],[-6.468,41.3011],[-6.45,41.2995],[-6.4163,41.3479],[-6.3938,41.3496],[-6.3758,41.3609],[-6.3938,41.3706],[-6.3915,41.3835],[-6.3668,41.3932],[-6.3533,41.3786],[-6.3151,41.3899],[-6.3331,41.4061],[-6.2948,41.4352],[-6.3061,41.4497],[-6.2881,41.4659],[-6.2836,41.4788],[-6.2498,41.5014],[-6.2588,41.5127],[-6.2363,41.5208],[-6.2116,41.5596],[-6.1891,41.5741],[-6.2093,41.5984],[-6.2363,41.6064],[-6.2543,41.6323],[-6.3016,41.6614],[-6.3555,41.6759],[-6.3735,41.6743],[-6.405,41.6808],[-6.4523,41.6808],[-6.4568,41.6662],[-6.4882,41.6581],[-6.513,41.6614],[-6.549,41.6856],[-6.5422,41.7034],[-6.5557,41.7389],[-6.5692,41.7438],[-6.5557,41.7583],[-6.5467,41.7938],[-6.5175,41.8746],[-6.5715,41.8827],[-6.5467,41.9312],[-6.549,41.9441],[-6.5872,41.9683],[-6.5984,41.9489],[-6.6997,41.9328],[-6.7514,41.9441],[-6.7694,41.9845],[-6.8121,41.9926],[-6.8099,41.97],[-6.8211,41.9457],[-6.8481,41.9425],[-6.8706,41.9489],[-6.8841,41.9409],[-6.9448,41.9441],[-6.9583,41.9683],[-6.9853,41.9716],[-7.0055,41.9506],[-7.0775,41.9522],[-7.0865,41.9732],[-7.1405,41.991],[-7.1585,41.9764],[-7.1787,41.9796],[-7.1855,41.97],[-7.1832,41.9328],[-7.1742,41.9199],[-7.1967,41.8795],[-7.2327,41.8666],[-7.2574,41.8666],[-7.3159,41.8423],[-7.3564,41.8407],[-7.3631,41.8536],[-7.3901,41.8423],[-7.3969,41.8262],[-7.4284,41.8068],[-7.4261,41.831],[-7.4486,41.8455],[-7.4531,41.8649],[-7.4846,41.8617],[-7.4913,41.8714],[-7.5138,41.8617],[-7.5048,41.8504],[-7.5206,41.8423],[-7.5746,41.8294],[-7.6151,41.831],[-7.6016,41.8666],[-7.5858,41.8811],[-7.6533,41.8811],[-7.705,41.9069],[-7.7343,41.8924],[-7.7635,41.8989],[-7.7792,41.8876],[-7.8445,41.8811],[-7.8422,41.8666],[-7.867,41.8585],[-7.8737,41.8455],[-7.8917,41.8601],[-7.8849,41.8892],[-7.8872,41.9263],[-7.9074,41.9263],[-7.9209,41.8811],[-7.9479,41.8714],[-7.9704,41.8762],[-7.9884,41.8682],[-8.0131,41.8294],[-8.0401,41.8294],[-8.0581,41.8165],[-8.0941,41.8084],[-8.1301,41.8084],[-8.1661,41.8181],[-8.1616,41.8617],[-8.1706,41.8795],[-8.1998,41.873],[-8.2178,41.9134],[-8.1886,41.9473],[-8.1751,41.9554],[-8.1638,41.9829],[-8.1413,41.9893],[-8.1301,42.0039],[-8.0851,42.0168],[-8.0851,42.0475],[-8.0964,42.0717],[-8.1189,42.083],[-8.1503,42.0798],[-8.1818,42.0653],[-8.1976,42.1541],[-8.2246,42.1331],[-8.2448,42.1396],[-8.2583,42.1218],[-8.274,42.1234],[-8.3033,42.104],[-8.3235,42.1008],[-8.3325,42.083],[-8.3708,42.0879],[-8.382,42.0766],[-8.4045,42.0798],[-8.4315,42.0734],[-8.4427,42.083],[-8.5237,42.0782],[-8.5237,42.0637],[-8.5462,42.054],[-8.5934,42.0572],[-8.6294,42.0507],[-8.6586,42.0297],[-8.6609,42.0039],[-8.6766,41.9926],[-8.7149,41.9796],[-8.7441,41.9651],[-8.7554,41.9344],[-8.7846,41.9166],[-8.8183,41.9069],[-8.8566,41.8746],[-8.8723,41.8698],[-8.8813,41.8827],[-8.8746,41.8989],[-8.8858,41.9166],[-8.8881,41.978],[-8.8813,42.0039],[-8.8881,42.0152],[-8.8858,42.0507],[-8.897,42.0669],[-8.8926,42.083],[-8.9015,42.1121],[-8.8813,42.1105],[-8.8633,42.1218],[-8.8341,42.1121],[-8.8228,42.117],[-8.8228,42.1428],[-8.8498,42.1493],[-8.8183,42.1622],[-8.8161,42.1881],[-8.7801,42.2042],[-8.7644,42.2301],[-8.7396,42.2268],[-8.7261,42.243],[-8.7126,42.2414],[-8.7036,42.2591],[-8.6766,42.264],[-8.6676,42.2785],[-8.6474,42.2898],[-8.6294,42.285],[-8.6137,42.2979],[-8.6227,42.3092],[-8.6114,42.3286],[-8.6114,42.3464],[-8.6272,42.3512],[-8.6451,42.3367],[-8.6362,42.327],[-8.6631,42.3108],[-8.6519,42.2979],[-8.6901,42.2802],[-8.7126,42.2785],[-8.7194,42.2898],[-8.7666,42.2591],[-8.7846,42.2624],[-8.7891,42.2478],[-8.8161,42.2591],[-8.8251,42.2511],[-8.8633,42.2688],[-8.8588,42.3044],[-8.8228,42.2753],[-8.8183,42.3076],[-8.8341,42.3415],[-8.8003,42.3383],[-8.7913,42.327],[-8.7531,42.3448],[-8.7396,42.3739],[-8.7059,42.3981],[-8.6991,42.3949],[-8.6564,42.4256],[-8.6811,42.4207],[-8.6901,42.4385],[-8.7126,42.4223],[-8.7419,42.4142],[-8.7711,42.39],[-8.8161,42.3997],[-8.8386,42.3836],[-8.8656,42.411],[-8.8813,42.4159],[-8.8723,42.4336],[-8.8836,42.4546],[-8.942,42.4643],[-8.933,42.4789],[-8.9128,42.4756],[-8.8903,42.4821],[-8.8813,42.4999],[-8.8633,42.4983],[-8.8566,42.4724],[-8.8723,42.4611],[-8.8678,42.4482],[-8.8318,42.4579],[-8.8206,42.4514],[-8.8318,42.4821],[-8.8183,42.5015],[-8.8138,42.529],[-8.8296,42.5176],[-8.8273,42.5403],[-8.8363,42.5516],[-8.8296,42.5758],[-8.8093,42.5758],[-8.7688,42.6065],[-8.7778,42.6146],[-8.7419,42.6485],[-8.7239,42.6808],[-8.7554,42.6469],[-8.7711,42.6534],[-8.7936,42.6372],[-8.8228,42.6469],[-8.8138,42.6598],[-8.8431,42.6824],[-8.8521,42.6647],[-8.8543,42.6307],[-8.8611,42.6065],[-8.8858,42.6146],[-8.8746,42.6324],[-8.9015,42.6404],[-8.9375,42.6065],[-8.9218,42.5855],[-8.9555,42.5839],[-8.9623,42.5693],[-8.9893,42.5661],[-8.987,42.5387],[-9.0185,42.5176],[-9.041,42.5176],[-9.0297,42.5516],[-9.0455,42.571],[-9.0612,42.5774],[-9.0882,42.5693],[-9.0792,42.5984],[-9.068,42.5984],[-9.0612,42.6178],[-9.0455,42.6291],[-9.0365,42.6485],[-9.0252,42.7083],[-9.0095,42.7115],[-9.0095,42.7277],[-8.9915,42.7406],[-8.9533,42.7487],[-8.942,42.7745],[-8.9218,42.7907],[-8.8993,42.7972],[-8.906,42.8182],[-8.9083,42.7972],[-8.942,42.802],[-8.9533,42.781],[-8.978,42.7907],[-8.9825,42.7778],[-9.0163,42.7842],[-9.0118,42.7988],[-9.0657,42.7858],[-9.0477,42.7697],[-9.0747,42.7568],[-9.0815,42.7374],[-9.1017,42.7551],[-9.113,42.7519],[-9.1355,42.7891],[-9.1512,42.7988],[-9.1152,42.8101],[-9.1062,42.823],[-9.113,42.8424],[-9.1287,42.844],[-9.149,42.8747],[-9.14,42.8957],[-9.1265,42.9054],[-9.1602,42.9119],[-9.1737,42.9442],[-9.1939,42.9458],[-9.1827,42.9167],[-9.2097,42.9167],[-9.2187,42.9409],[-9.2344,42.9409],[-9.2344,42.9264],[-9.2592,42.9232],[-9.2704,42.8796],[-9.2816,42.8941],[-9.2749,42.9054],[-9.2974,42.9216],[-9.2839,42.9539],[-9.2682,42.9652],[-9.2569,43.0023],[-9.2749,43.0088],[-9.2884,43.0443],[-9.2614,43.0492],[-9.2502,43.0686],[-9.2569,43.0912],[-9.2434,43.0847],[-9.2164,43.1041],[-9.1984,43.1041],[-9.1939,43.0912],[-9.1692,43.1041],[-9.1579,43.1267],[-9.1692,43.1477],[-9.1827,43.1235],[-9.2052,43.13],[-9.2119,43.1591],[-9.1984,43.1542],[-9.1804,43.1671],[-9.1737,43.1914],[-9.1669,43.1833],[-9.1512,43.193],[-9.1152,43.1946],[-9.0815,43.1817],[-9.059,43.1849],[-9.0028,43.2285],[-8.9915,43.2172],[-8.9803,43.2285],[-8.9398,43.2269],[-8.9533,43.2592],[-8.978,43.2641],[-8.9915,43.2738],[-8.9578,43.2932],[-8.9375,43.2899],[-8.906,43.2948],[-8.9105,43.3222],[-8.8746,43.3222],[-8.8588,43.3174],[-8.8476,43.3368],[-8.8318,43.3449],[-8.8251,43.3287],[-8.8071,43.3271],[-8.8026,43.3142],[-8.7711,43.2996],[-8.7126,43.2899],[-8.6429,43.3061],[-8.6204,43.3174],[-8.5934,43.3206],[-8.5529,43.3109],[-8.5304,43.3174],[-8.499,43.3481],[-8.5192,43.3545],[-8.4855,43.361],[-8.472,43.3545],[-8.4427,43.3804],[-8.4045,43.3739],[-8.4067,43.3885],[-8.3865,43.3691],[-8.4045,43.3642],[-8.3842,43.3529],[-8.3842,43.3416],[-8.3483,43.3465],[-8.3393,43.382],[-8.355,43.3804],[-8.3505,43.3966],[-8.3055,43.4046],[-8.2965,43.3852],[-8.2673,43.3852],[-8.2516,43.3626],[-8.2516,43.3497],[-8.2088,43.3287],[-8.2201,43.3852],[-8.2066,43.4095],[-8.1773,43.4111],[-8.1751,43.4208],[-8.1976,43.4272],[-8.2156,43.4176],[-8.2381,43.4289],[-8.2583,43.4192],[-8.2785,43.4369],[-8.3168,43.445],[-8.3123,43.4531],[-8.2538,43.466],[-8.2313,43.4547],[-8.2021,43.4596],[-8.1728,43.4773],[-8.1503,43.5145],[-8.1661,43.5129],[-8.1908,43.4822],[-8.2493,43.4757],[-8.2471,43.4935],[-8.2673,43.4676],[-8.2988,43.4612],[-8.3168,43.4709],[-8.3415,43.4579],[-8.3438,43.4693],[-8.328,43.4822],[-8.3213,43.5032],[-8.3303,43.508],[-8.3235,43.5258],[-8.3033,43.5258],[-8.2965,43.5355],[-8.3258,43.5597],[-8.3168,43.5694],[-8.301,43.5565],[-8.2605,43.5581],[-8.2156,43.584],[-8.2156,43.592],[-8.1931,43.6034],[-8.1886,43.6211],[-8.1661,43.613],[-8.1413,43.6324],[-8.0941,43.6534],[-8.0536,43.6486],[-8.0559,43.6599],[-8.0761,43.6599],[-8.0761,43.6825],[-8.0626,43.7051],[-8.0401,43.7132],[-8.0064,43.7051],[-7.9637,43.7213],[-7.9502,43.7423],[-7.9299,43.7391],[-7.9029,43.7681],[-7.8894,43.7633],[-7.8692,43.7746],[-7.8602,43.7633],[-7.8692,43.731],[-7.8512,43.7181],[-7.8535,43.7084],[-7.8782,43.7213],[-7.8715,43.6712],[-7.9052,43.6712],[-7.8849,43.6631],[-7.8467,43.668],[-7.867,43.6987],[-7.8287,43.7003],[-7.8242,43.7148],[-7.7815,43.7326],[-7.7253,43.7504],[-7.7185,43.7633],[-7.687,43.7762],[-7.6893,43.7891],[-7.6623,43.7778],[-7.6893,43.7568],[-7.6983,43.7391],[-7.6825,43.7294],[-7.6735,43.7471],[-7.651,43.7439],[-7.6375,43.7536],[-7.6308,43.7229],[-7.6083,43.7197],[-7.6151,43.7019],[-7.6128,43.6744],[-7.5971,43.6744],[-7.5768,43.6922],[-7.5858,43.7084],[-7.5588,43.7116],[-7.5566,43.7294],[-7.5251,43.7374],[-7.5138,43.7229],[-7.4936,43.7278],[-7.4666,43.7229],[-7.4779,43.7132],[-7.4689,43.7035],[-7.4081,43.689],[-7.4036,43.6825],[-7.3564,43.6712],[-7.3564,43.6599],[-7.3317,43.626],[-7.3227,43.6276],[-7.2934,43.5937],[-7.2462,43.5743],[-7.2619,43.5581],[-7.2439,43.5517],[-7.2372,43.5694],[-7.1787,43.5613],[-7.1675,43.5549],[-7.1157,43.5613],[-7.0888,43.5549],[-7.064,43.5581],[-7.0325,43.5452],[-7.0303,43.5565],[-6.9741,43.5565],[-6.9493,43.5727],[-6.9133,43.5727],[-6.8751,43.563],[-6.8706,43.5678],[-6.8279,43.5662],[-6.8099,43.5549],[-6.7851,43.5565],[-6.7671,43.5694],[-6.7581,43.5613],[-6.7334,43.5646],[-6.7244,43.5565],[-6.7087,43.5646],[-6.6839,43.5581],[-6.6592,43.5678],[-6.6277,43.5694],[-6.5895,43.5533],[-6.5805,43.5565],[-6.5242,43.55],[-6.4725,43.5517],[-6.4702,43.571],[-6.4298,43.5533],[-6.396,43.5597],[-6.3713,43.5517],[-6.3331,43.5613],[-6.3061,43.563],[-6.2431,43.5904],[-6.2049,43.5743],[-6.1891,43.5791],[-6.1914,43.5662],[-6.1711,43.5694],[-6.1126,43.5549],[-6.0677,43.5662],[-6.0227,43.5856],[-6.0114,43.5807],[-5.9597,43.5791],[-5.9417,43.5888],[-5.9485,43.5969],[-5.9147,43.6098],[-5.9147,43.6244],[-5.8877,43.6227],[-5.8585,43.6405],[-5.8585,43.6567],[-5.8427,43.6567],[-5.827,43.6389],[-5.7843,43.6308],[-5.791,43.6147],[-5.755,43.5823],[-5.7348,43.5743],[-5.701,43.5678],[-5.6943,43.5468],[-5.6471,43.542],[-5.6178,43.5581],[-5.5998,43.5484],[-5.5189,43.5517],[-5.4964,43.5452],[-5.4694,43.5517],[-5.4132,43.5549],[-5.3862,43.5355],[-5.3007,43.5355],[-5.267,43.5193],[-5.2692,43.5096],[-5.2265,43.487],[-5.2152,43.4741],[-5.1298,43.4838],[-5.1163,43.4773],[-5.087,43.4757],[-5.0713,43.466],[-5.0128,43.4579],[-4.9746,43.4628],[-4.9363,43.4596],[-4.8846,43.4483],[-4.8711,43.4418],[-4.8419,43.445],[-4.8239,43.4353],[-4.7654,43.4289],[-4.7429,43.4176],[-4.6799,43.4095],[-4.653,43.4014],[-4.5787,43.3982],[-4.5675,43.3917],[-4.545,43.3998],[-4.5135,43.3933],[-4.491,43.3966],[-4.473,43.3901],[-4.4438,43.3982],[-4.3718,43.3933],[-4.3381,43.4046],[-4.3291,43.3917],[-4.2796,43.3885],[-4.2324,43.3998],[-4.2166,43.3966],[-4.1109,43.4192],[-4.0817,43.4386],[-4.0772,43.4305],[-4.0232,43.4418],[-3.9985,43.4402],[-3.958,43.4563],[-3.9445,43.4693],[-3.8748,43.4806],[-3.8635,43.4757],[-3.8118,43.4951],[-3.7848,43.4919],[-3.7713,43.4676],[-3.8095,43.4563],[-3.8163,43.4369],[-3.8028,43.4256],[-3.8163,43.4079],[-3.7803,43.424],[-3.7915,43.4305],[-3.7691,43.4483],[-3.7443,43.4483],[-3.7758,43.4596],[-3.7331,43.4596],[-3.7061,43.4789],[-3.6813,43.4789],[-3.6454,43.4983],[-3.6116,43.5],[-3.5959,43.5129],[-3.5779,43.5064],[-3.5486,43.5096],[-3.5396,43.4935],[-3.5127,43.4919],[-3.5127,43.4773],[-3.4722,43.466],[-3.4317,43.4628],[-3.4249,43.445],[-3.4609,43.4386],[-3.4654,43.4046],[-3.4497,43.4353],[-3.4227,43.4127],[-3.371,43.4176],[-3.3665,43.4111],[-3.326,43.4159],[-3.2765,43.403],[-3.2563,43.403],[-3.2203,43.3933],[-3.2113,43.3755],[-3.1955,43.3723],[-3.1618,43.3513],[-3.1528,43.3529],[-3.1123,43.3513],[-3.0943,43.3626],[-3.0471,43.3432],[-3.0336,43.3465],[-3.0201,43.3255],[-3.0111,43.3368],[-3.0201,43.3578],[-3.0381,43.3723],[-3.0066,43.3836],[-2.9751,43.4046],[-2.9526,43.4111],[-2.9459,43.4353],[-2.8806,43.4369],[-2.8672,43.4321],[-2.8087,43.4305],[-2.7524,43.4563],[-2.7367,43.4272],[-2.6962,43.4062],[-2.6625,43.4095],[-2.6467,43.4159],[-2.6198,43.3917],[-2.5793,43.3869],[-2.5635,43.3917],[-2.5455,43.3739],[-2.5095,43.3772],[-2.4871,43.3642],[-2.4601,43.3352],[-2.4353,43.3352],[-2.4218,43.3238],[-2.3993,43.3222],[-2.3566,43.3045],[-2.2824,43.2948],[-2.2284,43.3109],[-2.1767,43.2883],[-2.1497,43.2948],[-2.1294,43.2899],[-2.1115,43.2996],[-2.008,43.3238],[-1.99,43.3174],[-1.9877,43.3271],[-1.963,43.3384],[-1.9158,43.3368],[-1.8798,43.3545],[-1.8708,43.3691],[-1.8483,43.3804],[-1.7921,43.3933],[-1.7966,43.382],[-1.7786,43.3642],[-1.7898,43.3529],[-1.7583,43.3432],[-1.7381,43.3303],[-1.7426,43.3174],[-1.7291,43.2948],[-1.6954,43.3125],[-1.6684,43.3142],[-1.6256,43.3061],[-1.6301,43.2851],[-1.6166,43.2576],[-1.5762,43.2495],[-1.5559,43.2786],[-1.5649,43.2883],[-1.5357,43.2948],[-1.5064,43.2932],[-1.4615,43.2721],[-1.4277,43.2673],[-1.4142,43.2738],[-1.385,43.2544],[-1.3782,43.2301],[-1.3872,43.1946],[-1.403,43.1784],[-1.403,43.1558],[-1.4142,43.1284],[-1.4705,43.0912],[-1.4727,43.0815],[-1.4412,43.046],[-1.3535,43.0282],[-1.3423,43.054],[-1.3467,43.0912],[-1.3198,43.1122],[-1.2703,43.1187],[-1.2883,43.1041],[-1.3085,43.0686],[-1.2478,43.0427],[-1.2298,43.0557],[-1.1803,43.033],[-1.1736,43.0379],[-1.1443,43.0233],[-1.1421,43.0072],[-1.1151,43.0233],[-1.0859,43.0023],[-1.0071,42.991],[-1.0004,42.9781],[-0.9442,42.9539],[-0.9149,42.9636],[-0.8632,42.9506],[-0.8115,42.9506],[-0.7867,42.9636],[-0.7507,42.9668],[-0.7305,42.9458],[-0.7282,42.9199],[-0.7327,42.8973],[-0.699,42.8796],[-0.6788,42.8844],[-0.6608,42.8634],[-0.6023,42.8327],[-0.6,42.8052],[-0.5775,42.8085],[-0.5641,42.7988],[-0.5686,42.781],[-0.5528,42.7778],[-0.5438,42.7939],[-0.5303,42.7907],[-0.5258,42.8101],[-0.5101,42.8246],[-0.4426,42.7955],[-0.4089,42.8085],[-0.3954,42.7988],[-0.3639,42.8165],[-0.3459,42.8375],[-0.3234,42.8343],[-0.3122,42.8489],[-0.2762,42.8359],[-0.2379,42.8085],[-0.1795,42.7858],[-0.1592,42.7988],[-0.1502,42.7697],[-0.139,42.7665],[-0.1097,42.7341],[-0.1075,42.7212],[-0.0692,42.718],[-0.0625,42.6954],[0.0005,42.6857],[0.0252,42.7018],[0.0477,42.6954],[0.0904,42.7164],[0.1062,42.7099],[0.1377,42.7228],[0.1624,42.7244],[0.1759,42.7374],[0.2051,42.7293],[0.2276,42.718],[0.2591,42.7164],[0.2704,42.6921],[0.2951,42.6727],[0.3243,42.6873],[0.3243,42.7051],[0.3603,42.7244],[0.3963,42.7002],[0.4211,42.6905],[0.4818,42.7002],[0.5178,42.6921],[0.5313,42.7018],[0.5897,42.6954],[0.6055,42.6986],[0.6595,42.6905],[0.6752,42.6905],[0.682,42.7083],[0.673,42.718],[0.6505,42.7648],[0.6662,42.7762],[0.6505,42.7858],[0.6707,42.8052],[0.6707,42.8246],[0.6595,42.8375],[0.6775,42.8553],[0.7089,42.8618],[0.7359,42.8489],[0.7809,42.8359],[0.8012,42.8408],[0.8326,42.8279],[0.8574,42.8262],[0.9069,42.7972],[0.9316,42.7891],[0.9608,42.8052],[0.9833,42.7875],[1.0058,42.7907],[1.0733,42.7826],[1.1093,42.7713],[1.1318,42.7503],[1.134,42.7277],[1.1655,42.7083],[1.2172,42.7196],[1.2285,42.7277],[1.2532,42.7148],[1.3162,42.7196],[1.3342,42.7244],[1.3567,42.7196],[1.3499,42.7034],[1.3904,42.6857],[1.3882,42.6679],[1.4129,42.655],[1.4197,42.6243],[1.4399,42.5952],[1.4264,42.5823],[1.4444,42.5726],[1.4264,42.558],[1.4129,42.5354],[1.4399,42.5435],[1.4534,42.5387],[1.4692,42.5096],[1.4197,42.4821],[1.4422,42.4756],[1.4444,42.4417],[1.4534,42.4369],[1.5164,42.4288],[1.5524,42.432],[1.5569,42.4546],[1.5816,42.4498],[1.5996,42.4676],[1.6311,42.4627],[1.6581,42.4676],[1.6626,42.4934],[1.7031,42.4902],[1.7256,42.5047],[1.73,42.4918],[1.7638,42.487],[1.8043,42.4902],[1.8425,42.4773],[1.847,42.4676],[1.8807,42.4595],[1.883,42.4514],[1.9167,42.4466],[1.9325,42.4546],[1.9707,42.3739],[2.0157,42.3464],[2.0247,42.3561],[2.0877,42.3642],[2.0899,42.3739],[2.1169,42.3836],[2.1281,42.4126],[2.1686,42.4256],[2.2069,42.4175],[2.2451,42.4288],[2.2563,42.4385],[2.2991,42.4239],[2.3058,42.4288],[2.3621,42.4029],[2.4138,42.3916],[2.4318,42.3949],[2.434,42.3771],[2.4543,42.3706],[2.4835,42.3399],[2.4992,42.3432],[2.542,42.3335],[2.5622,42.3577],[2.587,42.3577],[2.6095,42.3464],[2.6747,42.3415],[2.6747,42.3593],[2.6612,42.3658],[2.6544,42.3884],[2.6724,42.3884],[2.6792,42.4062],[2.6927,42.4062],[2.7174,42.4207],[2.7556,42.4256],[2.7714,42.411],[2.7984,42.4191],[2.8051,42.4304],[2.8276,42.4385],[2.8389,42.4595],[2.8614,42.4546],[2.8704,42.4676],[2.8816,42.4611],[2.9176,42.4563],[2.9468,42.4821],[2.9671,42.4659],[2.9896,42.474],[3.0143,42.4659],[3.0413,42.474],[3.048,42.4563],[3.0863,42.4256],[3.12,42.4385],[3.1605,42.4288],[3.1717,42.4159],[3.1537,42.3949],[3.1672,42.39],[3.156,42.3787],[3.1627,42.3609],[3.1852,42.3512],[3.1965,42.3351],[3.2032,42.3464],[3.228,42.3512],[3.2505,42.3302],[3.2617,42.3399],[3.3067,42.327],[3.3112,42.3173],[3.2774,42.2802],[3.2887,42.2672],[3.2797,42.2527],[3.2302,42.2511],[3.2167,42.2333],[3.1942,42.2478],[3.1807,42.2462],[3.1695,42.264],[3.1358,42.2478],[3.111,42.2058],[3.1133,42.1574],[3.1223,42.1315],[3.1762,42.1121],[3.2077,42.0701],[3.1965,42.0394],[3.1942,42.02],[3.2122,41.9764],[3.2302,41.97],[3.2325,41.9506],[3.2167,41.9425],[3.2167,41.9183],[3.2032,41.8908],[3.183,41.8876],[3.1785,41.8682],[3.1515,41.8617],[3.1335,41.8455],[3.1043,41.8455],[3.0705,41.8197],[3.066,41.8003],[3.0435,41.7793],[2.9806,41.7599],[2.9356,41.7163],[2.8883,41.7018],[2.8546,41.7001],[2.8209,41.6888],[2.7939,41.6727],[2.7691,41.6468],[2.7197,41.6291],[2.5487,41.5757],[2.4948,41.5531],[2.47,41.5467],[2.407,41.5095],[2.38,41.495],[2.2991,41.474],[2.2676,41.4594],[2.2451,41.4368],[2.2249,41.4077],[2.1979,41.3867],[2.1866,41.3641],[2.1754,41.3673],[2.1551,41.3156],[2.1416,41.2995],[2.0742,41.2768],[2.0224,41.2655],[1.9347,41.2623],[1.8695,41.2429],[1.8538,41.2348],[1.8155,41.2365],[1.7885,41.2235],[1.7278,41.2155],[1.6738,41.1977],[1.6041,41.188],[1.5434,41.1831],[1.4579,41.1621],[1.3949,41.1314],[1.3747,41.1331],[1.3432,41.125],[1.2937,41.1266],[1.2577,41.1137],[1.224,41.0911],[1.2217,41.1056],[1.1993,41.0943],[1.1723,41.0555],[1.1295,41.0749],[1.0823,41.0636],[1.0463,41.0636],[1.0036,41.0426],[0.9833,41.0394],[0.9541,41.0183],[0.9316,40.9925],[0.9001,40.9763],[0.7967,40.8762],[0.7449,40.839],[0.7404,40.8229],[0.7112,40.8115],[0.7,40.8002],[0.7292,40.7695],[0.7629,40.7615],[0.7832,40.7712],[0.7337,40.7922],[0.7674,40.7922],[0.8214,40.7405],[0.8416,40.7308],[0.8551,40.7372],[0.8731,40.7308],[0.8664,40.6952],[0.8484,40.6791],[0.7584,40.6403],[0.7067,40.5854],[0.6775,40.5644],[0.6235,40.5514],[0.601,40.5611],[0.592,40.5773],[0.6167,40.5773],[0.6167,40.5854],[0.6482,40.5724],[0.6595,40.5918],[0.7067,40.5902],[0.7449,40.6371],[0.7269,40.6403],[0.6887,40.6354],[0.664,40.6258],[0.601,40.6225],[0.538,40.5676],[0.5155,40.5224],[0.4773,40.4658],[0.466,40.4593],[0.4188,40.4012],[0.4008,40.3576],[0.3648,40.3236],[0.3513,40.301],[0.3311,40.28],[0.2794,40.2445],[0.2636,40.2089],[0.2344,40.1992],[0.2029,40.1815],[0.1827,40.1604],[0.1489,40.1007],[0.1467,40.0829],[0.1197,40.0619],[0.0859,40.057],[0.05,40.036],[0.0342,40.0102],[0.0252,39.9779],[0.0027,39.9504],[-0.004,39.9165],[-0.0333,39.8955],[-0.067,39.8616],[-0.0782,39.8616],[-0.121,39.8147],[-0.1367,39.7889],[-0.1817,39.7339],[-0.1974,39.6968],[-0.2109,39.6531],[-0.2379,39.637],[-0.2604,39.6128],[-0.2762,39.5724],[-0.3077,39.5368],[-0.3234,39.5013],[-0.3189,39.4609],[-0.3032,39.4609],[-0.3122,39.4431],[-0.3234,39.4577],[-0.3167,39.4237],[-0.3301,39.4286],[-0.3324,39.4092],[-0.3211,39.3736],[-0.2897,39.3026],[-0.2199,39.1862],[-0.2402,39.1668],[-0.2357,39.1361],[-0.2109,39.078],[-0.1795,39.0295],[-0.1345,38.9697],[-0.0737,38.9148],[-0.022,38.876],[0.0342,38.8599],[0.0522,38.8631],[0.0949,38.8534],[0.1242,38.834],[0.1467,38.8324],[0.1984,38.8017],[0.1849,38.7856],[0.2096,38.7597],[0.2209,38.7597],[0.2321,38.7322],[0.1961,38.729],[0.1467,38.687],[0.1287,38.687],[0.1152,38.6741],[0.0994,38.6725],[0.0702,38.6385],[0.05,38.6418],[0.0297,38.6256],[-0.0063,38.6305],[-0.031,38.6159],[-0.058,38.5868],[-0.0647,38.5723],[-0.049,38.5642],[-0.0962,38.5238],[-0.1097,38.5335],[-0.1502,38.5351],[-0.1727,38.5157],[-0.1907,38.5157],[-0.2334,38.5012],[-0.2672,38.4947],[-0.3032,38.4818],[-0.3436,38.456],[-0.3751,38.443],[-0.3999,38.4123],[-0.4089,38.3606],[-0.4021,38.3526],[-0.4471,38.3623],[-0.5101,38.3251],[-0.5191,38.2976],[-0.5191,38.2669],[-0.5078,38.2185],[-0.5101,38.2023],[-0.5371,38.1878],[-0.5663,38.191],[-0.5978,38.1862],[-0.6113,38.1765],[-0.6383,38.1328],[-0.6495,38.0553],[-0.654,37.9858],[-0.6968,37.9697],[-0.7057,37.9406],[-0.717,37.9373],[-0.7192,37.9115],[-0.7417,37.9099],[-0.7507,37.897],[-0.762,37.8469],[-0.753,37.7887],[-0.7755,37.8194],[-0.7957,37.8097],[-0.8002,37.7822],[-0.8272,37.7548],[-0.8497,37.7419],[-0.8587,37.7176],[-0.8115,37.6627],[-0.7867,37.6514],[-0.726,37.6352],[-0.7215,37.6498],[-0.7395,37.6578],[-0.7327,37.674],[-0.744,37.7112],[-0.7395,37.7435],[-0.7575,37.7806],[-0.744,37.779],[-0.744,37.7564],[-0.7282,37.7483],[-0.7417,37.7112],[-0.7282,37.6708],[-0.699,37.6336],[-0.7327,37.6013],[-0.7822,37.5948],[-0.8227,37.5754],[-0.8519,37.5819],[-0.9194,37.5544],[-0.9711,37.5593],[-0.9532,37.5674],[-0.9756,37.5771],[-0.9756,37.5981],[-0.9891,37.5981],[-1.0116,37.5754],[-1.0746,37.5835],[-1.0948,37.569],[-1.1083,37.569],[-1.1263,37.5528],[-1.1061,37.5351],[-1.1646,37.5415],[-1.1691,37.5577],[-1.2006,37.5738],[-1.2388,37.5771],[-1.2568,37.5577],[-1.3243,37.5641],[-1.3647,37.5431],[-1.3917,37.5254],[-1.4007,37.5076],[-1.4412,37.4979],[-1.4592,37.4866],[-1.4817,37.4527],[-1.4772,37.4284],[-1.4907,37.422],[-1.5199,37.4317],[-1.5649,37.4042],[-1.5919,37.4026],[-1.6301,37.3751],[-1.6504,37.3573],[-1.6706,37.3573],[-1.6886,37.3396],[-1.7066,37.3073],[-1.7583,37.2636],[-1.7741,37.2394],[-1.7966,37.2297],[-1.8236,37.1699],[-1.8326,37.1198],[-1.8438,37.1085],[-1.8506,37.0681],[-1.8775,37.0342],[-1.8775,37.0148],[-1.9,36.9874],[-1.8955,36.9486],[-1.9135,36.934],[-1.9338,36.9389],[-1.954,36.9243],[-1.9675,36.8985],[-1.9855,36.9001],[-2.0012,36.884],[-1.999,36.8403],[-2.0215,36.8371],[-2.062,36.8032],[-2.0642,36.7757],[-2.1047,36.7628],[-2.1249,36.7321],[-2.1519,36.7305],[-2.1924,36.7208],[-2.2509,36.7854],[-2.2936,36.8209],[-2.3184,36.8339],[-2.3611,36.842],[-2.4016,36.8274],[-2.4263,36.8113],[-2.4758,36.8371],[-2.5028,36.8242],[-2.5613,36.8161],[-2.5995,36.7741],[-2.6198,36.7272],[-2.6512,36.6998],[-2.7007,36.6836],[-2.7592,36.6804],[-2.7974,36.6998],[-2.8199,36.7062],[-2.8447,36.6949],[-2.8582,36.6982],[-2.8964,36.7369],[-2.9189,36.7499],[-2.9391,36.7515],[-2.9774,36.7386],[-3.0223,36.7466],[-3.0718,36.745],[-3.1146,36.7515],[-3.155,36.7466],[-3.2023,36.7499],[-3.209,36.745],[-3.245,36.7547],[-3.3057,36.7386],[-3.3395,36.7386],[-3.3642,36.7143],[-3.4137,36.7014],[-3.4182,36.6949],[-3.4834,36.6965],[-3.5261,36.724],[-3.5531,36.7143],[-3.5801,36.724],[-3.6004,36.7434],[-3.6611,36.7466],[-3.6746,36.7305],[-3.7196,36.7321],[-3.7353,36.7272],[-3.7556,36.7386],[-3.7668,36.7289],[-3.7915,36.7466],[-3.8343,36.7547],[-3.8658,36.7499],[-3.8793,36.7418],[-3.9197,36.7402],[-3.958,36.7256],[-3.994,36.7386],[-4.0659,36.7482],[-4.0839,36.745],[-4.1109,36.7256],[-4.1739,36.7159],[-4.2481,36.7111],[-4.2819,36.7143],[-4.3403,36.7127],[-4.3966,36.7224],[-4.4348,36.6998],[-4.455,36.6642],[-4.482,36.64],[-4.5135,36.5948],[-4.5428,36.5786],[-4.5855,36.5738],[-4.608,36.5592],[-4.6395,36.5075],[-4.6754,36.5043],[-4.6912,36.4914],[-4.7407,36.4849],[-4.8554,36.5075],[-4.8981,36.5075],[-4.9341,36.4994],[-5.0083,36.459],[-5.0331,36.4607],[-5.06,36.4494],[-5.0825,36.4494],[-5.1073,36.4348],[-5.1343,36.4284],[-5.1545,36.4154],[-5.177,36.4154],[-5.2197,36.375],[-5.2467,36.3104],[-5.267,36.3007],[-5.2962,36.2458],[-5.3164,36.228],[-5.3344,36.1812],[-5.3389,36.1537],[-5.3412,36.1165],[-5.3479,36.1101],[-5.3614,36.144],[-5.3524,36.1521],[-5.3749,36.1634],[-5.3862,36.1795],[-5.4267,36.1763],[-5.4424,36.1585],[-5.4401,36.1278],[-5.4222,36.1327],[-5.4222,36.1198],[-5.4424,36.1214],[-5.4312,36.1101],[-5.4424,36.0891],[-5.4267,36.0826],[-5.4312,36.0713],[-5.4649,36.0503],[-5.4874,36.0535],[-5.5166,36.0374],[-5.5751,36.0148],[-5.6066,36.0099],[-5.6493,36.0519],[-5.6943,36.0665],[-5.7123,36.0584],[-5.7505,36.0713],[-5.782,36.0875],[-5.7955,36.0778],[-5.8247,36.1036],[-5.8495,36.1343],[-5.8742,36.1569],[-5.9147,36.1844],[-5.944,36.186],[-5.9867,36.1779],[-6.0114,36.186],[-6.0339,36.1812],[-6.0789,36.2442],[-6.0879,36.2652],[-6.1126,36.2926],[-6.1419,36.2959],[-6.1824,36.3686],[-6.2183,36.3928],[-6.2363,36.4397],[-6.2858,36.5156],[-6.3061,36.5366],[-6.2791,36.5301],[-6.2588,36.4994],[-6.2656,36.4897],[-6.2543,36.4687],[-6.2273,36.4623],[-6.2138,36.4817],[-6.1936,36.4865],[-6.1734,36.5091],[-6.1734,36.5221],[-6.2004,36.5285],[-6.2093,36.5091],[-6.2318,36.5043],[-6.2566,36.5204],[-6.2363,36.5253],[-6.2228,36.5689],[-6.2408,36.5851],[-6.2656,36.5802],[-6.2791,36.6045],[-6.3016,36.619],[-6.3398,36.6255],[-6.3555,36.6158],[-6.3938,36.6335],[-6.3938,36.6481],[-6.441,36.7208],[-6.4433,36.7386],[-6.4163,36.7482],[-6.3623,36.7838],[-6.369,36.7951],[-6.396,36.8064],[-6.4433,36.9001],[-6.459,36.9195],[-6.5062,36.9664],[-6.5827,37.0148],[-6.7154,37.0843],[-6.7919,37.1182],[-6.8301,37.1279],[-6.8391,37.1376],[-6.8751,37.1489],[-6.9156,37.1764],[-6.9156,37.1635],[-6.8886,37.1457],[-6.9538,37.1699],[-7.0145,37.199],[-7.064,37.2103],[-7.073,37.2055],[-7.145,37.2087],[-7.2709,37.2022],[-7.3024,37.1958],[-7.3721,37.1699],[-7.4081,37.1828],[-7.4194,37.2362],[-7.4329,37.2475],[-7.4216,37.2733],[-7.4419,37.3073],[-7.4441,37.3476],[-7.4374,37.359],[-7.4396,37.3913],[-7.4621,37.4074],[-7.4464,37.4203],[-7.4576,37.4284],[-7.4576,37.4543],[-7.4689,37.472],[-7.4644,37.4866],[-7.4824,37.4963],[-7.4936,37.5237],[-7.5093,37.5237],[-7.5228,37.5528],[-7.5071,37.5577],[-7.5161,37.569],[-7.5026,37.5771],[-7.4913,37.6029],[-7.4554,37.6465],[-7.4486,37.6982],[-7.4194,37.7435],[-7.4239,37.7548],[-7.3969,37.7645],[-7.3789,37.7822],[-7.3204,37.8194],[-7.2799,37.876],[-7.2822,37.897],[-7.2552,37.9228],[-7.2484,37.9551],[-7.2619,37.9777],[-7.2462,37.9923],[-7.226,37.9874],[-7.2012,38.0036],[-7.1742,37.9923],[-7.1202,38.0052],[-7.1292,38.0294],[-7.0978,38.044],[-7.0663,38.0343],[-7.064,38.0197],[-7.0438,38.0133],[-7.0235,38.0246],[-7.001,38.023],[-7.001,38.0488],[-6.9898,38.0537],[-6.9875,38.1038],[-6.9741,38.1054],[-6.9583,38.1506],[-6.9696,38.1603],[-6.9538,38.1862],[-6.9313,38.2088],[-6.9358,38.2201],[-6.9561,38.2169],[-6.9718,38.2023],[-6.9808,38.212],[-7.01,38.1991],[-7.028,38.1829],[-7.0573,38.1862],[-7.0865,38.17],[-7.0978,38.1781],[-7.1427,38.2411],[-7.1427,38.2621],[-7.1562,38.2782],[-7.1765,38.2879],[-7.2012,38.3283],[-7.2687,38.3913],[-7.2889,38.4253],[-7.3159,38.4398],[-7.2957,38.4754],[-7.3182,38.4754],[-7.3137,38.5141],[-7.3024,38.5287],[-7.3024,38.5448],[-7.2642,38.5884],[-7.2574,38.6127],[-7.2439,38.624],[-7.2709,38.6369],[-7.2664,38.7015],[-7.2597,38.7242],[-7.2012,38.75],[-7.1945,38.7662],[-7.1607,38.7807],[-7.1472,38.8001],[-7.1247,38.8162],[-7.0978,38.8146],[-7.0685,38.8534],[-7.0528,38.8583],[-7.0325,38.8776],[-7.0528,38.9067],[-7.0258,38.9245],[-7.0213,38.9374],[-6.9875,38.9762],[-6.9516,39.023],[-6.9673,39.0392],[-6.9583,39.0537],[-6.9808,39.0877],[-7.028,39.1151],[-7.0528,39.1184],[-7.1045,39.099],[-7.145,39.1087],[-7.1405,39.1507],[-7.1315,39.1652],[-7.163,39.1798],[-7.2012,39.1862],[-7.2417,39.2088],[-7.2484,39.2541],[-7.2305,39.2783],[-7.2709,39.3042],[-7.2687,39.309],[-7.3114,39.3413],[-7.3114,39.3688],[-7.3227,39.3849],[-7.3002,39.4173],[-7.3092,39.4302],[-7.2934,39.456],[-7.3204,39.4738],[-7.3429,39.4787],[-7.3497,39.4883],[-7.3811,39.4916],[-7.3901,39.5029],[-7.3901,39.5304],[-7.4261,39.532],[-7.4464,39.5481],[-7.4666,39.5772],[-7.5003,39.5901],[-7.5093,39.6192],[-7.5273,39.6354],[-7.5341,39.6677],[-7.4554,39.6628],[-7.3991,39.6467],[-7.3744,39.6515],[-7.3317,39.6418],[-7.2867,39.6596],[-7.2507,39.6677],[-7.1517,39.6531],[-7.127,39.6628],[-7.055,39.6596],[-7.0145,39.6709],[-7.0055,39.7016],[-6.9875,39.7275],[-6.9943,39.7404],[-6.9763,39.7727],[-6.9875,39.8099],[-6.9696,39.8244],[-6.9583,39.8244],[-6.9358,39.8389],[-6.9336,39.8502],[-6.9043,39.8713],[-6.8998,39.9019],[-6.9066,39.9197],[-6.8863,39.9407],[-6.8863,39.9811],[-6.8728,39.9957],[-6.8818,40.0409],[-6.8931,40.0603],[-6.9178,40.0667],[-6.9201,40.0877],[-6.9403,40.112],[-7.001,40.1201],[-7.0213,40.1443],[-7.0168,40.1766],[-7.0303,40.1847],[-7.0123,40.2251],[-6.9785,40.2412],[-6.9628,40.238],[-6.9516,40.2574],[-6.9066,40.2542],[-6.8683,40.2638],[-6.8638,40.2703]]],[[[1.4332,38.7742],[1.4174,38.7856],[1.4219,38.7969],[1.4332,38.7742]]],[[[1.4107,38.8906],[1.4039,38.8744],[1.4062,38.8324],[1.3837,38.8421],[1.3724,38.8308],[1.3612,38.8599],[1.3432,38.8712],[1.305,38.8663],[1.2982,38.876],[1.2667,38.8776],[1.2465,38.8566],[1.2128,38.897],[1.2352,38.9407],[1.215,38.9568],[1.233,38.9681],[1.2645,38.9681],[1.3072,38.973],[1.2847,38.9988],[1.2915,39.0247],[1.3117,39.0441],[1.3612,39.0747],[1.3747,39.0618],[1.3859,39.078],[1.4174,39.078],[1.4264,39.0925],[1.4399,39.0812],[1.4534,39.0974],[1.4961,39.099],[1.5051,39.1119],[1.5321,39.1184],[1.5569,39.0941],[1.5906,39.0974],[1.6086,39.078],[1.5906,39.0747],[1.5951,39.0521],[1.6176,39.0376],[1.5839,39.015],[1.5816,38.9891],[1.5524,38.9924],[1.5321,38.9794],[1.5299,38.9455],[1.5096,38.9471],[1.5051,38.9326],[1.4759,38.9132],[1.4399,38.9164],[1.4377,38.9019],[1.4219,38.9035],[1.4107,38.8906]]],[[[1.3882,38.6418],[1.3814,38.6935],[1.3882,38.6935],[1.3792,38.7193],[1.3972,38.7306],[1.4174,38.7225],[1.4354,38.7597],[1.4489,38.7322],[1.4714,38.7193],[1.4916,38.6902],[1.5299,38.6725],[1.5614,38.6918],[1.5816,38.6773],[1.5726,38.6515],[1.5254,38.6531],[1.4759,38.6822],[1.4422,38.6838],[1.4287,38.666],[1.3882,38.6418]]],[[[2.3058,39.5724],[2.3081,39.5821],[2.3373,39.5982],[2.3193,39.5772],[2.3058,39.5724]]],[[[2.5982,39.5481],[2.5892,39.5336],[2.56,39.532],[2.5375,39.5174],[2.5375,39.4883],[2.524,39.4577],[2.5015,39.4609],[2.4565,39.5045],[2.4678,39.519],[2.452,39.5368],[2.4183,39.5239],[2.4228,39.5352],[2.4048,39.5368],[2.3868,39.5207],[2.3666,39.5546],[2.3463,39.5643],[2.3553,39.5772],[2.3441,39.5869],[2.3553,39.6063],[2.3845,39.6128],[2.4205,39.6354],[2.4633,39.6515],[2.4992,39.6838],[2.5307,39.7016],[2.5555,39.7],[2.5847,39.7162],[2.623,39.7485],[2.6364,39.7646],[2.6657,39.7759],[2.6702,39.7921],[2.6882,39.7969],[2.7017,39.8115],[2.7422,39.8325],[2.7489,39.8276],[2.7759,39.8406],[2.7736,39.8519],[2.8051,39.8519],[2.8546,39.8745],[2.8749,39.8777],[2.9063,39.8987],[2.9356,39.9036],[2.9513,39.9197],[2.9873,39.9084],[3.0278,39.9359],[3.0615,39.9326],[3.0548,39.923],[3.12,39.931],[3.147,39.9536],[3.165,39.9585],[3.1807,39.952],[3.2145,39.9617],[3.2032,39.944],[3.183,39.9391],[3.1537,39.923],[3.1313,39.9262],[3.1088,39.9052],[3.0908,39.9116],[3.0795,39.889],[3.0908,39.8664],[3.111,39.8583],[3.1335,39.8696],[3.1425,39.8648],[3.1942,39.8939],[3.2032,39.889],[3.1852,39.8713],[3.1942,39.8567],[3.1785,39.8406],[3.12,39.8325],[3.12,39.8034],[3.1537,39.7679],[3.2122,39.742],[3.255,39.7291],[3.3247,39.7582],[3.3359,39.784],[3.3472,39.7889],[3.3787,39.7662],[3.4034,39.7646],[3.4326,39.7452],[3.4574,39.7452],[3.4529,39.721],[3.4754,39.721],[3.4574,39.7048],[3.4551,39.6548],[3.4394,39.6548],[3.4349,39.6321],[3.4101,39.637],[3.3922,39.6176],[3.3854,39.5885],[3.4011,39.5772],[3.3787,39.5756],[3.3674,39.5514],[3.3404,39.5417],[3.2954,39.4997],[3.2819,39.469],[3.2752,39.4156],[3.255,39.4011],[3.2505,39.3866],[3.2235,39.3575],[3.2122,39.3639],[3.1875,39.3349],[3.1717,39.3268],[3.147,39.33],[3.12,39.3122],[3.0728,39.2686],[3.0503,39.2654],[3.0413,39.2799],[3.0188,39.2945],[3.0053,39.3155],[2.9851,39.3155],[2.9918,39.3365],[2.9648,39.3591],[2.9311,39.3639],[2.9086,39.3559],[2.8816,39.3656],[2.8434,39.3656],[2.8299,39.3559],[2.8051,39.3672],[2.7894,39.3623],[2.7512,39.3946],[2.7399,39.4173],[2.7489,39.4366],[2.7219,39.4754],[2.7512,39.5045],[2.7264,39.532],[2.6882,39.553],[2.6319,39.5691],[2.6252,39.5465],[2.5982,39.5481]]],[[[2.9468,39.1248],[2.9131,39.1442],[2.9243,39.1555],[2.9491,39.1491],[2.9468,39.1636],[2.9761,39.1588],[2.9581,39.1491],[2.9581,39.1281],[2.9468,39.1248]]],[[[4.1569,39.8551],[4.0984,39.8793],[4.0781,39.8955],[4.0197,39.923],[4.0129,39.9197],[3.9567,39.9391],[3.896,39.923],[3.8217,39.923],[3.824,39.952],[3.8352,39.9601],[3.8262,39.9957],[3.7947,40.0005],[3.7925,40.0199],[3.8105,40.0296],[3.8217,40.0506],[3.8532,40.0554],[3.878,40.0522],[3.8982,40.0603],[3.9094,40.049],[3.9207,40.057],[3.9589,40.0619],[3.9679,40.0538],[4.0219,40.0587],[4.0331,40.0651],[4.0489,40.0522],[4.0871,40.0684],[4.1029,40.0441],[4.1344,40.0635],[4.1231,40.0377],[4.1389,40.0328],[4.1366,40.0667],[4.1658,40.0587],[4.1591,40.0425],[4.1816,40.0215],[4.1883,40.0344],[4.2198,39.9973],[4.2468,40.0005],[4.2581,39.9957],[4.2558,39.9633],[4.2828,39.944],[4.2761,39.9326],[4.2851,39.9116],[4.3053,39.8971],[4.3098,39.8777],[4.294,39.8809],[4.3075,39.8648],[4.3075,39.8486],[4.2963,39.8228],[4.2716,39.8082],[4.2401,39.8163],[4.1838,39.8389],[4.1569,39.8551]]],[[[1.973,42.4853],[1.9775,42.495],[1.9977,42.4853],[1.9864,42.4756],[2.0134,42.4482],[1.9842,42.4466],[1.9572,42.4579],[1.973,42.4853]]],[[[-9.0118,42.4643],[-9.0163,42.4853],[-8.9983,42.4692],[-9.0118,42.4643]]],[[[-8.9398,42.3561],[-8.9443,42.3803],[-8.9263,42.39],[-8.9398,42.3561]]],[[[-8.915,42.2123],[-8.9038,42.243],[-8.8993,42.2171],[-8.915,42.2123]]],[[[-8.8723,42.5257],[-8.8791,42.5403],[-8.8701,42.5564],[-8.8881,42.5677],[-8.8768,42.5742],[-8.8588,42.558],[-8.8723,42.5257]]],[[[-5.3817,35.913],[-5.3659,35.9178],[-5.3344,35.8936],[-5.3142,35.8887],[-5.2872,35.9065],[-5.2805,35.8936],[-5.3209,35.8871],[-5.3434,35.871],[-5.3727,35.8807],[-5.3817,35.913]]],[[[-2.9526,35.32],[-2.9324,35.2942],[-2.9279,35.2748],[-2.9504,35.2651],[-2.9706,35.2893],[-2.9526,35.32]]],[[[-17.961,27.6927],[-17.9723,27.6717],[-17.97,27.649],[-17.9857,27.6377],[-18.0105,27.649],[-18.0285,27.6765],[-18.051,27.6927],[-18.1252,27.7056],[-18.1454,27.704],[-18.1612,27.7169],[-18.1522,27.7314],[-18.1522,27.7605],[-18.1319,27.7718],[-18.105,27.7573],[-18.0645,27.754],[-18.0397,27.7621],[-17.997,27.7912],[-17.9857,27.8074],[-17.9925,27.8219],[-17.9543,27.8413],[-17.9183,27.8478],[-17.8935,27.8316],[-17.8823,27.8122],[-17.925,27.746],[-17.9318,27.7282],[-17.9565,27.7201],[-17.961,27.6927]]],[[[-17.8868,28.5522],[-17.9115,28.5861],[-17.925,28.5958],[-17.925,28.6152],[-17.9385,28.6394],[-17.9633,28.6685],[-17.9813,28.7283],[-18.0015,28.7525],[-18.006,28.7767],[-17.9947,28.7961],[-17.979,28.8042],[-17.9678,28.8252],[-17.9205,28.8575],[-17.8958,28.843],[-17.8575,28.8333],[-17.8081,28.843],[-17.7788,28.8381],[-17.7586,28.8042],[-17.7586,28.7864],[-17.7249,28.7428],[-17.7316,28.7202],[-17.7451,28.7121],[-17.7698,28.6766],[-17.7496,28.62],[-17.7563,28.6136],[-17.7608,28.5699],[-17.7878,28.5441],[-17.7968,28.5182],[-17.8171,28.494],[-17.8328,28.4585],[-17.8575,28.4601],[-17.8755,28.4908],[-17.88,28.5409],[-17.8868,28.5522]]],[[[-17.1918,28.0303],[-17.2435,28.0206],[-17.2705,28.0255],[-17.2728,28.0352],[-17.32,28.061],[-17.3245,28.0804],[-17.3492,28.0982],[-17.3403,28.1321],[-17.347,28.1483],[-17.3178,28.2032],[-17.275,28.2177],[-17.2593,28.2177],[-17.2435,28.2],[-17.2008,28.2],[-17.1761,28.1773],[-17.1176,28.1515],[-17.1041,28.1289],[-17.0996,28.0949],[-17.1536,28.0546],[-17.1671,28.0368],[-17.1918,28.0303]]],[[[-16.733,28.0675],[-16.7397,28.0885],[-16.769,28.1095],[-16.7937,28.1402],[-16.805,28.1709],[-16.8342,28.2016],[-16.8454,28.2387],[-16.8387,28.2549],[-16.8612,28.2872],[-16.8814,28.3034],[-16.9039,28.3389],[-16.9197,28.3421],[-16.9174,28.3599],[-16.8702,28.3712],[-16.8297,28.3938],[-16.8095,28.3761],[-16.7555,28.3744],[-16.6813,28.3906],[-16.6745,28.4003],[-16.652,28.3955],[-16.6025,28.3938],[-16.5553,28.4181],[-16.5216,28.4181],[-16.5036,28.4245],[-16.4968,28.4391],[-16.4766,28.4407],[-16.4743,28.4536],[-16.4294,28.4892],[-16.4226,28.5182],[-16.3776,28.5473],[-16.3664,28.5457],[-16.3326,28.557],[-16.3304,28.5764],[-16.2989,28.5683],[-16.2742,28.578],[-16.2247,28.5651],[-16.1932,28.5716],[-16.1572,28.5893],[-16.1347,28.5812],[-16.1212,28.5522],[-16.1437,28.5215],[-16.155,28.5231],[-16.2202,28.4892],[-16.2359,28.4859],[-16.2539,28.4504],[-16.2674,28.4488],[-16.3192,28.4003],[-16.3281,28.4019],[-16.3551,28.3825],[-16.3686,28.3551],[-16.3596,28.3195],[-16.3619,28.3066],[-16.3844,28.284],[-16.3866,28.2646],[-16.4249,28.2016],[-16.4204,28.1983],[-16.4339,28.1563],[-16.4249,28.1515],[-16.4631,28.1192],[-16.4923,28.082],[-16.5418,28.0432],[-16.5463,28.0255],[-16.5598,28.0319],[-16.5958,28.0287],[-16.625,28.019],[-16.6453,28.0045],[-16.6655,28.0077],[-16.679,27.998],[-16.7082,28.0109],[-16.7105,28.0465],[-16.7375,28.0546],[-16.733,28.0675]]],[[[-15.3948,28.0303],[-15.3678,27.9915],[-15.3835,27.9673],[-15.379,27.9463],[-15.361,27.9366],[-15.3835,27.9269],[-15.3925,27.8849],[-15.3858,27.8574],[-15.4128,27.8478],[-15.4218,27.8106],[-15.4397,27.8009],[-15.487,27.7928],[-15.5634,27.7589],[-15.5679,27.7395],[-15.5994,27.7347],[-15.6197,27.7492],[-15.6287,27.7444],[-15.6602,27.7573],[-15.6737,27.7492],[-15.6894,27.7718],[-15.7254,27.788],[-15.7861,27.8348],[-15.8176,27.893],[-15.8333,27.9108],[-15.8288,27.9495],[-15.8333,27.9754],[-15.8176,28.0045],[-15.8221,28.0125],[-15.7906,28.019],[-15.7659,28.0465],[-15.7389,28.0546],[-15.7074,28.0901],[-15.7141,28.103],[-15.6961,28.1515],[-15.7096,28.166],[-15.6826,28.1693],[-15.6647,28.158],[-15.6377,28.1725],[-15.6129,28.1483],[-15.5792,28.1434],[-15.5432,28.1483],[-15.5297,28.1547],[-15.478,28.137],[-15.469,28.1256],[-15.4465,28.1305],[-15.4307,28.145],[-15.442,28.1628],[-15.4218,28.1806],[-15.4038,28.1741],[-15.4128,28.1289],[-15.4285,28.1466],[-15.4285,28.1256],[-15.4105,28.0982],[-15.4195,28.0626],[-15.415,28.0481],[-15.3948,28.0303]]],[[[-14.3602,28.0481],[-14.4096,28.0578],[-14.4771,28.0772],[-14.5041,28.0723],[-14.4929,28.0836],[-14.4996,28.0998],[-14.4299,28.1014],[-14.3827,28.1143],[-14.3152,28.145],[-14.2455,28.1951],[-14.223,28.2161],[-14.2095,28.2597],[-14.214,28.2872],[-14.2027,28.3292],[-14.1757,28.347],[-14.1622,28.3728],[-14.1622,28.3922],[-14.151,28.4294],[-14.1263,28.4568],[-14.1015,28.4762],[-14.0745,28.5247],[-14.0678,28.5506],[-14.034,28.5926],[-14.0385,28.6119],[-14.0093,28.6766],[-14.0183,28.6943],[-14.0183,28.7153],[-13.9756,28.7347],[-13.9576,28.7347],[-13.9261,28.7509],[-13.9148,28.7444],[-13.8901,28.7574],[-13.8676,28.746],[-13.8676,28.7363],[-13.8451,28.7283],[-13.8316,28.6943],[-13.8339,28.675],[-13.8226,28.5926],[-13.8294,28.5829],[-13.8271,28.5522],[-13.8384,28.5425],[-13.8429,28.5037],[-13.8631,28.494],[-13.8676,28.4811],[-13.8564,28.4601],[-13.8631,28.4391],[-13.8519,28.4245],[-13.8519,28.3938],[-13.8631,28.3858],[-13.8789,28.3373],[-13.8946,28.3244],[-13.9036,28.2969],[-13.8968,28.2888],[-13.9261,28.242],[-13.9486,28.2274],[-13.9891,28.2274],[-14.0093,28.2097],[-14.0723,28.2016],[-14.1532,28.1822],[-14.1577,28.1757],[-14.2005,28.1725],[-14.223,28.1628],[-14.25,28.1176],[-14.3017,28.0739],[-14.3264,28.0465],[-14.3602,28.0481]]],[[[-13.8226,28.738],[-13.8361,28.7525],[-13.8136,28.7654],[-13.8226,28.738]]],[[[-13.6067,28.9415],[-13.6449,28.9189],[-13.6742,28.9221],[-13.7102,28.9157],[-13.7417,28.8995],[-13.7529,28.8737],[-13.7866,28.8381],[-13.7934,28.8543],[-13.8294,28.8624],[-13.8766,28.8591],[-13.8811,28.885],[-13.8294,28.9302],[-13.8339,28.99],[-13.8136,29.0336],[-13.7529,29.0789],[-13.7102,29.0789],[-13.6629,29.1128],[-13.6584,29.1241],[-13.6315,29.1176],[-13.6045,29.1354],[-13.5842,29.1338],[-13.5617,29.1176],[-13.5392,29.1241],[-13.5235,29.1419],[-13.5212,29.171],[-13.4965,29.2178],[-13.4695,29.2388],[-13.42,29.2017],[-13.429,29.1548],[-13.447,29.1467],[-13.4628,29.116],[-13.447,29.0918],[-13.4695,29.0336],[-13.4628,29.0239],[-13.4853,28.9916],[-13.4943,28.9932],[-13.5505,28.9577],[-13.582,28.9528],[-13.6067,28.9415]]],[[[-13.4898,29.2485],[-13.5212,29.2194],[-13.5437,29.2194],[-13.546,29.2323],[-13.5257,29.242],[-13.5235,29.2663],[-13.5077,29.2905],[-13.483,29.2792],[-13.4718,29.2663],[-13.4898,29.2485]]],[[[-13.5235,29.4101],[-13.5055,29.4165],[-13.4898,29.4036],[-13.5077,29.3842],[-13.5302,29.3858],[-13.5235,29.4101]]]]}}